[{"OBJECT_NAME":"COSMOS 2571","OBJECT_ID":"2023-165C","EPOCH":"2026-03-09T19:25:49.566144","MEAN_MOTION":13.97323702,"ECCENTRICITY":0.0010141,"INCLINATION":67.1509,"RA_OF_ASC_NODE":169.1542,"ARG_OF_PERICENTER":25.0362,"MEAN_ANOMALY":335.1212,"EPHEMERIS_TYPE":0,"CLASSIFICATION_TYPE":"U","NORAD_CAT_ID":58172,"ELEMENT_SET_NO":999,"REV_AT_EPOCH":12047,"BSTAR":5.9518e-5,"MEAN_MOTION_DOT":8.0e-8,"MEAN_MOTION_DDOT":0},{"OBJECT_NAME":"UNKNOWN","OBJECT_ID":"","EPOCH":"2026-03-05T15:34:41.452896","MEAN_MOTION":14.16794175,"ECCENTRICITY":0.0083452,"INCLINATION":99.0167,"RA_OF_ASC_NODE":139.6519,"ARG_OF_PERICENTER":164.5205,"MEAN_ANOMALY":195.855,"EPHEMERIS_TYPE":0,"CLASSIFICATION_TYPE":"U","NORAD_CAT_ID":89493,"ELEMENT_SET_NO":999,"REV_AT_EPOCH":47568,"BSTAR":0.0017969,"MEAN_MOTION_DOT":3.678e-5,"MEAN_MOTION_DDOT":0}]
